[
  {
    "code": "AF",
    "continent": "亚洲",
    "phone_code": "93",
    "name": "阿富汗"
  },
  {
    "code": "AX",
    "continent": "欧洲",
    "phone_code": "358",
    "name": "奥兰群岛"
  },
  {
    "code": "AL",
    "continent": "欧洲",
    "phone_code": "355",
    "name": "阿尔巴尼亚"
  },
  {
    "code": "DZ",
    "continent": "非洲",
    "phone_code": "213",
    "name": "阿尔及利亚"
  },
  {
    "code": "AS",
    "continent": "大洋洲",
    "phone_code": "1",
    "name": "美屬薩摩亞"
  },
  {
    "code": "AD",
    "continent": "欧洲",
    "phone_code": "376",
    "name": "安道爾"
  },
  {
    "code": "AO",
    "continent": "非洲",
    "phone_code": "244",
    "name": "安哥拉"
  },
  {
    "code": "AI",
    "continent": "北美洲",
    "phone_code": "1",
    "name": "安圭拉"
  },
  {
    "code": "AG",
    "continent": "北美洲",
    "phone_code": "1",
    "name": "安提瓜和巴布達"
  },
  {
    "code": "AR",
    "continent": "南美洲",
    "phone_code": "54",
    "name": "阿根廷"
  },
  {
    "code": "AM",
    "continent": "亚洲",
    "phone_code": "374",
    "name": "亞美尼亞"
  },
  {
    "code": "AW",
    "continent": "南美洲",
    "phone_code": "297",
    "name": "阿魯巴"
  },
  {
    "code": "AU",
    "continent": "大洋洲",
    "phone_code": "61",
    "name": "澳大利亞"
  },
  {
    "code": "AT",
    "continent": "欧洲",
    "phone_code": "43",
    "name": "奧地利"
  },
  {
    "code": "AZ",
    "continent": "亚洲",
    "phone_code": "994",
    "name": "阿塞拜疆"
  },
  {
    "code": "BS",
    "continent": "北美洲",
    "phone_code": "1",
    "name": "巴哈馬"
  },
  {
    "code": "BH",
    "continent": "亚洲",
    "phone_code": "973",
    "name": "巴林"
  },
  {
    "code": "BD",
    "continent": "亚洲",
    "phone_code": "880",
    "name": "孟加拉國"
  },
  {
    "code": "BB",
    "continent": "北美洲",
    "phone_code": "1",
    "name": "巴巴多斯"
  },
  {
    "code": "BY",
    "continent": "欧洲",
    "phone_code": "375",
    "name": "白俄羅斯"
  },
  {
    "code": "BE",
    "continent": "欧洲",
    "phone_code": "32",
    "name": "比利時"
  },
  {
    "code": "BZ",
    "continent": "北美洲",
    "phone_code": "501",
    "name": "伯利茲"
  },
  {
    "code": "BJ",
    "continent": "非洲",
    "phone_code": "229",
    "name": "貝寧"
  },
  {
    "code": "BM",
    "continent": "北美洲",
    "phone_code": "1",
    "name": "百慕大"
  },
  {
    "code": "BT",
    "continent": "亚洲",
    "phone_code": "975",
    "name": "不丹"
  },
  {
    "code": "BO",
    "continent": "南美洲",
    "phone_code": "591",
    "name": "玻利維亞"
  },
  {
    "code": "BA",
    "continent": "欧洲",
    "phone_code": "387",
    "name": "波黑"
  },
  {
    "code": "BW",
    "continent": "非洲",
    "phone_code": "267",
    "name": "博茨瓦納"
  },
  {
    "code": "BR",
    "continent": "南美洲",
    "phone_code": "55",
    "name": "巴西"
  },
  {
    "code": "IO",
    "continent": "亚洲",
    "phone_code": "246",
    "name": "英屬印度洋領地"
  },
  {
    "code": "BN",
    "continent": "亚洲",
    "phone_code": "673",
    "name": "文萊"
  },
  {
    "code": "BG",
    "continent": "欧洲",
    "phone_code": "359",
    "name": "保加利亞"
  },
  {
    "code": "BF",
    "continent": "非洲",
    "phone_code": "226",
    "name": "布基納法索"
  },
  {
    "code": "BI",
    "continent": "非洲",
    "phone_code": "257",
    "name": "布隆迪"
  },
  {
    "code": "KH",
    "continent": "亚洲",
    "phone_code": "855",
    "name": "柬埔寨"
  },
  {
    "code": "CM",
    "continent": "非洲",
    "phone_code": "237",
    "name": "喀麥隆"
  },
  {
    "code": "CA",
    "continent": "北美洲",
    "phone_code": "1",
    "name": "加拿大"
  },
  {
    "code": "CV",
    "continent": "非洲",
    "phone_code": "238",
    "name": "佛得角"
  },
  {
    "code": "KY",
    "continent": "北美洲",
    "phone_code": "1",
    "name": "開曼群島"
  },
  {
    "code": "CF",
    "continent": "非洲",
    "phone_code": "236",
    "name": "中非"
  },
  {
    "code": "TD",
    "continent": "非洲",
    "phone_code": "235",
    "name": "乍得"
  },
  {
    "code": "CL",
    "continent": "南美洲",
    "phone_code": "56",
    "name": "智利"
  },
  {
    "code": "CN",
    "continent": "亚洲",
    "phone_code": "86",
    "name": "中國"
  },
  {
    "code": "CX",
    "continent": "大洋洲",
    "phone_code": "61",
    "name": "聖誕島"
  },
  {
    "code": "CC",
    "continent": "亚洲",
    "phone_code": "61",
    "name": "科科斯（基林）群島"
  },
  {
    "code": "CO",
    "continent": "南美洲",
    "phone_code": "57",
    "name": "哥倫比亞"
  },
  {
    "code": "KM",
    "continent": "非洲",
    "phone_code": "269",
    "name": "科摩羅"
  },
  {
    "code": "CG",
    "continent": "非洲",
    "phone_code": "242",
    "name": "剛果（布）"
  },
  {
    "code": "CD",
    "continent": "非洲",
    "phone_code": "243",
    "name": "剛果（金）"
  },
  {
    "code": "CK",
    "continent": "大洋洲",
    "phone_code": "682",
    "name": "庫克群島"
  },
  {
    "code": "CR",
    "continent": "北美洲",
    "phone_code": "506",
    "name": "哥斯達黎加"
  },
  {
    "code": "CI",
    "continent": "非洲",
    "phone_code": "225",
    "name": "科特迪瓦"
  },
  {
    "code": "HR",
    "continent": "欧洲",
    "phone_code": "385",
    "name": "克羅地亞"
  },
  {
    "code": "CU",
    "continent": "北美洲",
    "phone_code": "53",
    "name": "古巴"
  },
  {
    "code": "CY",
    "continent": "亚洲",
    "phone_code": "357",
    "name": "塞浦路斯"
  },
  {
    "code": "CZ",
    "continent": "欧洲",
    "phone_code": "420",
    "name": "捷克"
  },
  {
    "code": "DK",
    "continent": "欧洲",
    "phone_code": "45",
    "name": "丹麥"
  },
  {
    "code": "DJ",
    "continent": "非洲",
    "phone_code": "253",
    "name": "吉布提"
  },
  {
    "code": "DM",
    "continent": "北美洲",
    "phone_code": "1",
    "name": "多米尼克"
  },
  {
    "code": "DO",
    "continent": "北美洲",
    "phone_code": "1",
    "name": "多米尼加"
  },
  {
    "code": "EC",
    "continent": "南美洲",
    "phone_code": "593",
    "name": "厄瓜多爾"
  },
  {
    "code": "EG",
    "continent": "非洲",
    "phone_code": "20",
    "name": "埃及"
  },
  {
    "code": "SV",
    "continent": "北美洲",
    "phone_code": "503",
    "name": "薩爾瓦多"
  },
  {
    "code": "GQ",
    "continent": "非洲",
    "phone_code": "240",
    "name": "赤道幾內亞"
  },
  {
    "code": "ER",
    "continent": "非洲",
    "phone_code": "291",
    "name": "厄立特里亞"
  },
  {
    "code": "EE",
    "continent": "欧洲",
    "phone_code": "372",
    "name": "愛沙尼亞"
  },
  {
    "code": "ET",
    "continent": "非洲",
    "phone_code": "251",
    "name": "埃塞俄比亞"
  },
  {
    "code": "FO",
    "continent": "欧洲",
    "phone_code": "298",
    "name": "法羅群島"
  },
  {
    "code": "FJ",
    "continent": "大洋洲",
    "phone_code": "679",
    "name": "斐濟"
  },
  {
    "code": "FI",
    "continent": "欧洲",
    "phone_code": "358",
    "name": "芬蘭"
  },
  {
    "code": "FR",
    "continent": "欧洲",
    "phone_code": "33",
    "name": "法國"
  },
  {
    "code": "GF",
    "continent": "南美洲",
    "phone_code": "594",
    "name": "法屬圭亞那"
  },
  {
    "code": "PF",
    "continent": "大洋洲",
    "phone_code": "689",
    "name": "法屬波利尼西亞"
  },
  {
    "code": "GA",
    "continent": "非洲",
    "phone_code": "241",
    "name": "加蓬"
  },
  {
    "code": "GM",
    "continent": "非洲",
    "phone_code": "220",
    "name": "岡比亞"
  },
  {
    "code": "GE",
    "continent": "亚洲",
    "phone_code": "995",
    "name": "格魯吉亞"
  },
  {
    "code": "DE",
    "continent": "欧洲",
    "phone_code": "49",
    "name": "德國"
  },
  {
    "code": "GH",
    "continent": "非洲",
    "phone_code": "233",
    "name": "加納"
  },
  {
    "code": "GI",
    "continent": "欧洲",
    "phone_code": "350",
    "name": "直布羅陀"
  },
  {
    "code": "GR",
    "continent": "欧洲",
    "phone_code": "30",
    "name": "希臘"
  },
  {
    "code": "GL",
    "continent": "北美洲",
    "phone_code": "299",
    "name": "格陵蘭"
  },
  {
    "code": "GD",
    "continent": "北美洲",
    "phone_code": "1",
    "name": "格林納達"
  },
  {
    "code": "GP",
    "continent": "北美洲",
    "phone_code": "590",
    "name": "瓜德羅普"
  },
  {
    "code": "GU",
    "continent": "大洋洲",
    "phone_code": "1",
    "name": "關島"
  },
  {
    "code": "GT",
    "continent": "北美洲",
    "phone_code": "502",
    "name": "危地馬拉"
  },
  {
    "code": "GG",
    "continent": "欧洲",
    "phone_code": "44",
    "name": "格恩西島"
  },
  {
    "code": "GN",
    "continent": "非洲",
    "phone_code": "224",
    "name": "幾內亞"
  },
  {
    "code": "GW",
    "continent": "非洲",
    "phone_code": "245",
    "name": "幾內亞比紹"
  },
  {
    "code": "GY",
    "continent": "南美洲",
    "phone_code": "592",
    "name": "圭亞那"
  },
  {
    "code": "HT",
    "continent": "北美洲",
    "phone_code": "509",
    "name": "海地"
  },
  {
    "code": "HM",
    "continent": "大洋洲",
    "phone_code": "672",
    "name": "赫德島和麥克唐納島"
  },
  {
    "code": "VA",
    "continent": "欧洲",
    "phone_code": "379",
    "name": "梵蒂岡"
  },
  {
    "code": "HN",
    "continent": "北美洲",
    "phone_code": "504",
    "name": "洪都拉斯"
  },
  {
    "code": "HK",
    "continent": "亚洲",
    "phone_code": "852",
    "name": "中國香港"
  },
  {
    "code": "HU",
    "continent": "欧洲",
    "phone_code": "36",
    "name": "匈牙利"
  },
  {
    "code": "IS",
    "continent": "欧洲",
    "phone_code": "354",
    "name": "冰島"
  },
  {
    "code": "IN",
    "continent": "亚洲",
    "phone_code": "91",
    "name": "印度"
  },
  {
    "code": "ID",
    "continent": "亚洲",
    "phone_code": "62",
    "name": "印度尼西亞"
  },
  {
    "code": "IR",
    "continent": "亚洲",
    "phone_code": "98",
    "name": "伊朗"
  },
  {
    "code": "IQ",
    "continent": "亚洲",
    "phone_code": "964",
    "name": "伊拉克"
  },
  {
    "code": "IE",
    "continent": "欧洲",
    "phone_code": "353",
    "name": "愛爾蘭"
  },
  {
    "code": "IM",
    "continent": "欧洲",
    "phone_code": "44",
    "name": "英國屬地曼島"
  },
  {
    "code": "IL",
    "continent": "亚洲",
    "phone_code": "972",
    "name": "以色列"
  },
  {
    "code": "IT",
    "continent": "欧洲",
    "phone_code": "39",
    "name": "意大利"
  },
  {
    "code": "JM",
    "continent": "北美洲",
    "phone_code": "1",
    "name": "牙買加"
  },
  {
    "code": "JP",
    "continent": "亚洲",
    "phone_code": "81",
    "name": "日本"
  },
  {
    "code": "JE",
    "continent": "欧洲",
    "phone_code": "44",
    "name": "澤西島"
  },
  {
    "code": "JO",
    "continent": "亚洲",
    "phone_code": "962",
    "name": "約旦"
  },
  {
    "code": "KZ",
    "continent": "亚洲",
    "phone_code": "7",
    "name": "哈薩克斯坦"
  },
  {
    "code": "KE",
    "continent": "非洲",
    "phone_code": "254",
    "name": "肯尼亞"
  },
  {
    "code": "KI",
    "continent": "大洋洲",
    "phone_code": "686",
    "name": "基里巴斯"
  },
  {
    "code": "KP",
    "continent": "亚洲",
    "phone_code": "850",
    "name": "朝鮮"
  },
  {
    "code": "KR",
    "continent": "亚洲",
    "phone_code": "82",
    "name": "韓國"
  },
  {
    "code": "KW",
    "continent": "亚洲",
    "phone_code": "965",
    "name": "科威特"
  },
  {
    "code": "KG",
    "continent": "亚洲",
    "phone_code": "996",
    "name": "吉爾吉斯斯坦"
  },
  {
    "code": "LA",
    "continent": "亚洲",
    "phone_code": "856",
    "name": "老撾"
  },
  {
    "code": "LV",
    "continent": "欧洲",
    "phone_code": "371",
    "name": "拉脫維亞"
  },
  {
    "code": "LB",
    "continent": "亚洲",
    "phone_code": "961",
    "name": "黎巴嫩"
  },
  {
    "code": "LS",
    "continent": "非洲",
    "phone_code": "266",
    "name": "萊索托"
  },
  {
    "code": "LR",
    "continent": "非洲",
    "phone_code": "231",
    "name": "利比里亞"
  },
  {
    "code": "LY",
    "continent": "非洲",
    "phone_code": "218",
    "name": "利比亞"
  },
  {
    "code": "LI",
    "continent": "欧洲",
    "phone_code": "423",
    "name": "列支敦士登"
  },
  {
    "code": "LT",
    "continent": "欧洲",
    "phone_code": "370",
    "name": "立陶宛"
  },
  {
    "code": "LU",
    "continent": "欧洲",
    "phone_code": "352",
    "name": "盧森堡"
  },
  {
    "code": "MO",
    "continent": "亚洲",
    "phone_code": "853",
    "name": "中國澳門"
  },
  {
    "code": "MK",
    "continent": "欧洲",
    "phone_code": "389",
    "name": "前南馬其頓"
  },
  {
    "code": "MG",
    "continent": "非洲",
    "phone_code": "261",
    "name": "馬達加斯加"
  },
  {
    "code": "MW",
    "continent": "非洲",
    "phone_code": "265",
    "name": "馬拉維"
  },
  {
    "code": "MY",
    "continent": "亚洲",
    "phone_code": "60",
    "name": "馬來西亞"
  },
  {
    "code": "MV",
    "continent": "亚洲",
    "phone_code": "960",
    "name": "馬爾代夫"
  },
  {
    "code": "ML",
    "continent": "非洲",
    "phone_code": "223",
    "name": "馬里"
  },
  {
    "code": "MT",
    "continent": "欧洲",
    "phone_code": "356",
    "name": "馬耳他"
  },
  {
    "code": "MH",
    "continent": "大洋洲",
    "phone_code": "692",
    "name": "馬紹爾群島"
  },
  {
    "code": "MQ",
    "continent": "北美洲",
    "phone_code": "596",
    "name": "馬提尼克"
  },
  {
    "code": "MR",
    "continent": "非洲",
    "phone_code": "222",
    "name": "毛利塔尼亞"
  },
  {
    "code": "MU",
    "continent": "非洲",
    "phone_code": "230",
    "name": "毛里求斯"
  },
  {
    "code": "YT",
    "continent": "非洲",
    "phone_code": "262",
    "name": "馬約特"
  },
  {
    "code": "MX",
    "continent": "北美洲",
    "phone_code": "52",
    "name": "墨西哥"
  },
  {
    "code": "FM",
    "continent": "大洋洲",
    "phone_code": "691",
    "name": "密克羅尼西亞聯邦"
  },
  {
    "code": "MD",
    "continent": "欧洲",
    "phone_code": "373",
    "name": "摩爾多瓦"
  },
  {
    "code": "MC",
    "continent": "欧洲",
    "phone_code": "377",
    "name": "摩納哥"
  },
  {
    "code": "MN",
    "continent": "亚洲",
    "phone_code": "976",
    "name": "蒙古"
  },
  {
    "code": "ME",
    "continent": "欧洲",
    "phone_code": "382",
    "name": "黑山"
  },
  {
    "code": "MS",
    "continent": "北美洲",
    "phone_code": "1",
    "name": "蒙特塞拉特"
  },
  {
    "code": "MA",
    "continent": "非洲",
    "phone_code": "212",
    "name": "摩洛哥"
  },
  {
    "code": "MZ",
    "continent": "非洲",
    "phone_code": "258",
    "name": "莫桑比克"
  },
  {
    "code": "MM",
    "continent": "亚洲",
    "phone_code": "95",
    "name": "緬甸"
  },
  {
    "code": "NA",
    "continent": "非洲",
    "phone_code": "264",
    "name": "納米比亞"
  },
  {
    "code": "NR",
    "continent": "大洋洲",
    "phone_code": "674",
    "name": "瑙魯"
  },
  {
    "code": "NP",
    "continent": "亚洲",
    "phone_code": "977",
    "name": "尼泊爾"
  },
  {
    "code": "NL",
    "continent": "欧洲",
    "phone_code": "31",
    "name": "荷蘭"
  },
  {
    "code": "AN",
    "continent": "北美洲",
    "phone_code": "599",
    "name": "荷屬安的列斯"
  },
  {
    "code": "NC",
    "continent": "大洋洲",
    "phone_code": "687",
    "name": "新喀裡多尼亞"
  },
  {
    "code": "NZ",
    "continent": "大洋洲",
    "phone_code": "64",
    "name": "新西蘭"
  },
  {
    "code": "NI",
    "continent": "北美洲",
    "phone_code": "505",
    "name": "尼加拉瓜"
  },
  {
    "code": "NE",
    "continent": "非洲",
    "phone_code": "227",
    "name": "尼日爾"
  },
  {
    "code": "NG",
    "continent": "非洲",
    "phone_code": "234",
    "name": "尼日利亞"
  },
  {
    "code": "NU",
    "continent": "大洋洲",
    "phone_code": "683",
    "name": "紐埃"
  },
  {
    "code": "NF",
    "continent": "大洋洲",
    "phone_code": "672",
    "name": "諾福克島"
  },
  {
    "code": "MP",
    "continent": "大洋洲",
    "phone_code": "1",
    "name": "北馬里亞納"
  },
  {
    "code": "NO",
    "continent": "欧洲",
    "phone_code": "47",
    "name": "挪威"
  },
  {
    "code": "OM",
    "continent": "亚洲",
    "phone_code": "968",
    "name": "阿曼"
  },
  {
    "code": "PK",
    "continent": "亚洲",
    "phone_code": "92",
    "name": "巴基斯坦"
  },
  {
    "code": "PW",
    "continent": "大洋洲",
    "phone_code": "680",
    "name": "帕勞"
  },
  {
    "code": "PS",
    "continent": "亚洲",
    "phone_code": "970",
    "name": "巴勒斯坦"
  },
  {
    "code": "PA",
    "continent": "北美洲",
    "phone_code": "507",
    "name": "巴拿馬"
  },
  {
    "code": "PG",
    "continent": "大洋洲",
    "phone_code": "675",
    "name": "巴布亞新幾內亞"
  },
  {
    "code": "PY",
    "continent": "南美洲",
    "phone_code": "595",
    "name": "巴拉圭"
  },
  {
    "code": "PE",
    "continent": "南美洲",
    "phone_code": "51",
    "name": "秘魯"
  },
  {
    "code": "PH",
    "continent": "亚洲",
    "phone_code": "63",
    "name": "菲律賓"
  },
  {
    "code": "PN",
    "continent": "大洋洲",
    "phone_code": "64",
    "name": "皮特凱恩"
  },
  {
    "code": "PL",
    "continent": "欧洲",
    "phone_code": "48",
    "name": "波蘭"
  },
  {
    "code": "PT",
    "continent": "欧洲",
    "phone_code": "351",
    "name": "葡萄牙"
  },
  {
    "code": "PR",
    "continent": "北美洲",
    "phone_code": "1",
    "name": "波多黎各"
  },
  {
    "code": "QA",
    "continent": "亚洲",
    "phone_code": "974",
    "name": "卡塔爾"
  },
  {
    "code": "RE",
    "continent": "非洲",
    "phone_code": "262",
    "name": "留尼汪"
  },
  {
    "code": "RO",
    "continent": "欧洲",
    "phone_code": "40",
    "name": "羅馬尼亞"
  },
  {
    "code": "RU",
    "continent": "欧洲",
    "phone_code": "7",
    "name": "俄羅斯聯邦"
  },
  {
    "code": "RW",
    "continent": "非洲",
    "phone_code": "250",
    "name": "盧旺達"
  },
  {
    "code": "SH",
    "continent": "非洲",
    "phone_code": "290",
    "name": "聖赫勒拿"
  },
  {
    "code": "KN",
    "continent": "北美洲",
    "phone_code": "1",
    "name": "聖基茨和尼維斯"
  },
  {
    "code": "LC",
    "continent": "北美洲",
    "phone_code": "1",
    "name": "聖盧西亞"
  },
  {
    "code": "PM",
    "continent": "北美洲",
    "phone_code": "508",
    "name": "聖皮埃爾和密克隆"
  },
  {
    "code": "VC",
    "continent": "北美洲",
    "phone_code": "1",
    "name": "聖文森特和格林納丁斯"
  },
  {
    "code": "WS",
    "continent": "大洋洲",
    "phone_code": "685",
    "name": "薩摩亞"
  },
  {
    "code": "SM",
    "continent": "欧洲",
    "phone_code": "378",
    "name": "聖馬力諾"
  },
  {
    "code": "ST",
    "continent": "非洲",
    "phone_code": "239",
    "name": "聖多美和普林西比"
  },
  {
    "code": "SA",
    "continent": "亚洲",
    "phone_code": "966",
    "name": "沙特阿拉伯"
  },
  {
    "code": "SN",
    "continent": "非洲",
    "phone_code": "221",
    "name": "塞內加爾"
  },
  {
    "code": "RS",
    "continent": "欧洲",
    "phone_code": "381",
    "name": "塞爾維亞"
  },
  {
    "code": "SC",
    "continent": "非洲",
    "phone_code": "248",
    "name": "塞舌爾"
  },
  {
    "code": "SL",
    "continent": "非洲",
    "phone_code": "232",
    "name": "塞拉利昂"
  },
  {
    "code": "SG",
    "continent": "亚洲",
    "phone_code": "65",
    "name": "新加坡"
  },
  {
    "code": "SK",
    "continent": "欧洲",
    "phone_code": "421",
    "name": "斯洛伐克"
  },
  {
    "code": "SI",
    "continent": "欧洲",
    "phone_code": "386",
    "name": "斯洛文尼亞"
  },
  {
    "code": "SB",
    "continent": "大洋洲",
    "phone_code": "677",
    "name": "所羅門群島"
  },
  {
    "code": "SO",
    "continent": "非洲",
    "phone_code": "252",
    "name": "索馬里"
  },
  {
    "code": "ZA",
    "continent": "非洲",
    "phone_code": "27",
    "name": "南非"
  },
  {
    "code": "ES",
    "continent": "欧洲",
    "phone_code": "34",
    "name": "西班牙"
  },
  {
    "code": "LK",
    "continent": "亚洲",
    "phone_code": "94",
    "name": "斯里蘭卡"
  },
  {
    "code": "SD",
    "continent": "非洲",
    "phone_code": "249",
    "name": "蘇丹"
  },
  {
    "code": "SR",
    "continent": "南美洲",
    "phone_code": "597",
    "name": "蘇里南"
  },
  {
    "code": "SJ",
    "continent": "欧洲",
    "phone_code": "47",
    "name": "斯瓦爾巴島和揚馬延島"
  },
  {
    "code": "SZ",
    "continent": "非洲",
    "phone_code": "268",
    "name": "斯威士蘭"
  },
  {
    "code": "SE",
    "continent": "欧洲",
    "phone_code": "46",
    "name": "瑞典"
  },
  {
    "code": "CH",
    "continent": "欧洲",
    "phone_code": "41",
    "name": "瑞士"
  },
  {
    "code": "SY",
    "continent": "亚洲",
    "phone_code": "963",
    "name": "敘利亞"
  },
  {
    "code": "TW",
    "continent": "亚洲",
    "phone_code": "886",
    "name": "中國台灣"
  },
  {
    "code": "TJ",
    "continent": "亚洲",
    "phone_code": "992",
    "name": "塔吉克斯坦"
  },
  {
    "code": "TZ",
    "continent": "非洲",
    "phone_code": "255",
    "name": "坦桑尼亞"
  },
  {
    "code": "TH",
    "continent": "亚洲",
    "phone_code": "66",
    "name": "泰國"
  },
  {
    "code": "TL",
    "continent": "亚洲",
    "phone_code": "670",
    "name": "東帝汶"
  },
  {
    "code": "TG",
    "continent": "非洲",
    "phone_code": "228",
    "name": "多哥"
  },
  {
    "code": "TK",
    "continent": "大洋洲",
    "phone_code": "690",
    "name": "托克勞"
  },
  {
    "code": "TO",
    "continent": "大洋洲",
    "phone_code": "676",
    "name": "湯加"
  },
  {
    "code": "TT",
    "continent": "北美洲",
    "phone_code": "1",
    "name": "特立尼達和多巴哥"
  },
  {
    "code": "TN",
    "continent": "非洲",
    "phone_code": "216",
    "name": "突尼斯"
  },
  {
    "code": "TR",
    "continent": "亚洲",
    "phone_code": "90",
    "name": "土耳其"
  },
  {
    "code": "TM",
    "continent": "亚洲",
    "phone_code": "993",
    "name": "土庫曼斯坦"
  },
  {
    "code": "TC",
    "continent": "北美洲",
    "phone_code": "1",
    "name": "特克斯和凱科斯群島"
  },
  {
    "code": "TV",
    "continent": "大洋洲",
    "phone_code": "688",
    "name": "圖瓦盧"
  },
  {
    "code": "UG",
    "continent": "非洲",
    "phone_code": "256",
    "name": "烏干達"
  },
  {
    "code": "UA",
    "continent": "欧洲",
    "phone_code": "380",
    "name": "烏克蘭"
  },
  {
    "code": "AE",
    "continent": "亚洲",
    "phone_code": "971",
    "name": "阿聯酋"
  },
  {
    "code": "GB",
    "continent": "欧洲",
    "phone_code": "44",
    "name": "英國"
  },
  {
    "code": "US",
    "continent": "北美洲",
    "phone_code": "1",
    "name": "美國"
  },
  {
    "code": "UM",
    "continent": "大洋洲",
    "phone_code": "246",
    "name": "美國本土外小島嶼"
  },
  {
    "code": "UY",
    "continent": "南美洲",
    "phone_code": "598",
    "name": "烏拉圭"
  },
  {
    "code": "UZ",
    "continent": "亚洲",
    "phone_code": "998",
    "name": "烏茲別克斯坦"
  },
  {
    "code": "VU",
    "continent": "大洋洲",
    "phone_code": "678",
    "name": "瓦努阿圖"
  },
  {
    "code": "VE",
    "continent": "南美洲",
    "phone_code": "58",
    "name": "委內瑞拉"
  },
  {
    "code": "VN",
    "continent": "亚洲",
    "phone_code": "84",
    "name": "越南"
  },
  {
    "code": "VG",
    "continent": "北美洲",
    "phone_code": "1",
    "name": "英屬維爾京群島"
  },
  {
    "code": "VI",
    "continent": "北美洲",
    "phone_code": "1",
    "name": "美屬維爾京群島"
  },
  {
    "code": "WF",
    "continent": "大洋洲",
    "phone_code": "681",
    "name": "瓦利斯和富圖納"
  },
  {
    "code": "EH",
    "continent": "非洲",
    "phone_code": "212",
    "name": "西撒哈拉"
  },
  {
    "code": "YE",
    "continent": "亚洲",
    "phone_code": "967",
    "name": "也門"
  },
  {
    "code": "ZM",
    "continent": "非洲",
    "phone_code": "260",
    "name": "贊比亞"
  },
  {
    "code": "ZW",
    "continent": "非洲",
    "phone_code": "263",
    "name": "津巴布韋"
  }
]